CCSDS_OMM_VERS = 2.0
CREATION_DATE  = 
ORIGINATOR     = 

OBJECT_NAME    = STARLINK-36527
OBJECT_ID      = 2026-020Q
CENTER_NAME    = EARTH
REF_FRAME      = TEME
TIME_SYSTEM    = UTC
MEAN_ELEMENT_THEORY = SGP/SGP4

EPOCH          = 2026-02-19T00:18:23.660640
MEAN_MOTION    = 15.82098922
ECCENTRICITY   = .00024249
INCLINATION    = 42.9970
RA_OF_ASC_NODE = 255.2097
ARG_OF_PERICENTER = 262.0998
MEAN_ANOMALY   = 97.9598

EPHEMERIS_TYPE = 0
CLASSIFICATION_TYPE = U
NORAD_CAT_ID   = 67631
ELEMENT_SET_NO = 999
REV_AT_EPOCH   = 314
BSTAR          = .12846048E-2
MEAN_MOTION_DOT = .279982E-2
MEAN_MOTION_DDOT = 0

CCSDS_OMM_VERS = 2.0
CREATION_DATE  = 
ORIGINATOR     = 

OBJECT_NAME    = STARLINK-36633
OBJECT_ID      = 2026-020R
CENTER_NAME    = EARTH
REF_FRAME      = TEME
TIME_SYSTEM    = UTC
MEAN_ELEMENT_THEORY = SGP/SGP4

EPOCH          = 2026-02-19T12:00:02.998944
MEAN_MOTION    = 15.76442904
ECCENTRICITY   = .0001969
INCLINATION    = 42.9990
RA_OF_ASC_NODE = 252.2412
ARG_OF_PERICENTER = 257.6961
MEAN_ANOMALY   = 353.7721

EPHEMERIS_TYPE = 0
CLASSIFICATION_TYPE = U
NORAD_CAT_ID   = 67632
ELEMENT_SET_NO = 999
REV_AT_EPOCH   = 446
BSTAR          = -.68305E-3
MEAN_MOTION_DOT = -.110657E-2
MEAN_MOTION_DDOT = 0

CCSDS_OMM_VERS = 2.0
CREATION_DATE  = 
ORIGINATOR     = 

OBJECT_NAME    = STARLINK-36637
OBJECT_ID      = 2026-020S
CENTER_NAME    = EARTH
REF_FRAME      = TEME
TIME_SYSTEM    = UTC
MEAN_ELEMENT_THEORY = SGP/SGP4

EPOCH          = 2026-02-19T00:58:38.973504
MEAN_MOTION    = 15.76395142
ECCENTRICITY   = .000102
INCLINATION    = 42.9963
RA_OF_ASC_NODE = 255.4375
ARG_OF_PERICENTER = 311.2277
MEAN_ANOMALY   = 48.8505

EPHEMERIS_TYPE = 0
CLASSIFICATION_TYPE = U
NORAD_CAT_ID   = 67633
ELEMENT_SET_NO = 999
REV_AT_EPOCH   = 314
BSTAR          = .1532825E-2
MEAN_MOTION_DOT = .257169E-2
MEAN_MOTION_DDOT = 0

CCSDS_OMM_VERS = 2.0
CREATION_DATE  = 
ORIGINATOR     = 

OBJECT_NAME    = STARLINK-36617
OBJECT_ID      = 2026-020T
CENTER_NAME    = EARTH
REF_FRAME      = TEME
TIME_SYSTEM    = UTC
MEAN_ELEMENT_THEORY = SGP/SGP4

EPOCH          = 2026-02-19T00:15:28.901088
MEAN_MOTION    = 15.82116284
ECCENTRICITY   = .00026252
INCLINATION    = 42.9972
RA_OF_ASC_NODE = 255.1937
ARG_OF_PERICENTER = 242.9758
MEAN_ANOMALY   = 117.0846

EPHEMERIS_TYPE = 0
CLASSIFICATION_TYPE = U
NORAD_CAT_ID   = 67634
ELEMENT_SET_NO = 999
REV_AT_EPOCH   = 314
BSTAR          = .12721001E-2
MEAN_MOTION_DOT = .277398E-2
MEAN_MOTION_DDOT = 0

CCSDS_OMM_VERS = 2.0
CREATION_DATE  = 
ORIGINATOR     = 

OBJECT_NAME    = STARLINK-36627
OBJECT_ID      = 2026-020U
CENTER_NAME    = EARTH
REF_FRAME      = TEME
TIME_SYSTEM    = UTC
MEAN_ELEMENT_THEORY = SGP/SGP4

EPOCH          = 2026-02-19T00:49:11.504352
MEAN_MOTION    = 15.76416244
ECCENTRICITY   = .000093
INCLINATION    = 42.9969
RA_OF_ASC_NODE = 255.3832
ARG_OF_PERICENTER = 310.5248
MEAN_ANOMALY   = 49.5541

EPHEMERIS_TYPE = 0
CLASSIFICATION_TYPE = U
NORAD_CAT_ID   = 67635
ELEMENT_SET_NO = 999
REV_AT_EPOCH   = 314
BSTAR          = .15317102E-2
MEAN_MOTION_DOT = .257223E-2
MEAN_MOTION_DDOT = 0

CCSDS_OMM_VERS = 2.0
CREATION_DATE  = 
ORIGINATOR     = 

OBJECT_NAME    = STARLINK-36624
OBJECT_ID      = 2026-020V
CENTER_NAME    = EARTH
REF_FRAME      = TEME
TIME_SYSTEM    = UTC
MEAN_ELEMENT_THEORY = SGP/SGP4

EPOCH          = 2026-02-19T12:00:02.998944
MEAN_MOTION    = 15.76325344
ECCENTRICITY   = .0001422
INCLINATION    = 42.9992
RA_OF_ASC_NODE = 252.2719
ARG_OF_PERICENTER = 270.6335
MEAN_ANOMALY   = 328.4552

EPHEMERIS_TYPE = 0
CLASSIFICATION_TYPE = U
NORAD_CAT_ID   = 67636
ELEMENT_SET_NO = 999
REV_AT_EPOCH   = 446
BSTAR          = .42501E-3
MEAN_MOTION_DOT = .6916E-3
MEAN_MOTION_DDOT = 0

CCSDS_OMM_VERS = 2.0
CREATION_DATE  = 
ORIGINATOR     = 

OBJECT_NAME    = STARLINK-36610
OBJECT_ID      = 2026-020W
CENTER_NAME    = EARTH
REF_FRAME      = TEME
TIME_SYSTEM    = UTC
MEAN_ELEMENT_THEORY = SGP/SGP4

EPOCH          = 2026-02-19T12:00:02.998944
MEAN_MOTION    = 15.76376483
ECCENTRICITY   = .0001649
INCLINATION    = 42.9981
RA_OF_ASC_NODE = 252.5834
ARG_OF_PERICENTER = 263.5119
MEAN_ANOMALY   = 211.2504

EPHEMERIS_TYPE = 0
CLASSIFICATION_TYPE = U
NORAD_CAT_ID   = 67637
ELEMENT_SET_NO = 999
REV_AT_EPOCH   = 446
BSTAR          = -.81569E-3
MEAN_MOTION_DOT = -.131339E-2
MEAN_MOTION_DDOT = 0

CCSDS_OMM_VERS = 2.0
CREATION_DATE  = 
ORIGINATOR     = 

OBJECT_NAME    = STARLINK-36599
OBJECT_ID      = 2026-020X
CENTER_NAME    = EARTH
REF_FRAME      = TEME
TIME_SYSTEM    = UTC
MEAN_ELEMENT_THEORY = SGP/SGP4

EPOCH          = 2026-02-19T00:09:30.159648
MEAN_MOTION    = 15.82075329
ECCENTRICITY   = .00027751
INCLINATION    = 42.9966
RA_OF_ASC_NODE = 255.1598
ARG_OF_PERICENTER = 228.5556
MEAN_ANOMALY   = 131.5078

EPHEMERIS_TYPE = 0
CLASSIFICATION_TYPE = U
NORAD_CAT_ID   = 67638
ELEMENT_SET_NO = 999
REV_AT_EPOCH   = 314
BSTAR          = .9936126E-3
MEAN_MOTION_DOT = .214567E-2
MEAN_MOTION_DDOT = 0

CCSDS_OMM_VERS = 2.0
CREATION_DATE  = 
ORIGINATOR     = 

OBJECT_NAME    = STARLINK-36595
OBJECT_ID      = 2026-020Y
CENTER_NAME    = EARTH
REF_FRAME      = TEME
TIME_SYSTEM    = UTC
MEAN_ELEMENT_THEORY = SGP/SGP4

EPOCH          = 2026-02-19T12:00:02.998944
MEAN_MOTION    = 15.76319011
ECCENTRICITY   = .0002033
INCLINATION    = 42.9988
RA_OF_ASC_NODE = 252.1784
ARG_OF_PERICENTER = 259.1329
MEAN_ANOMALY   = 17.2773

EPHEMERIS_TYPE = 0
CLASSIFICATION_TYPE = U
NORAD_CAT_ID   = 67639
ELEMENT_SET_NO = 999
REV_AT_EPOCH   = 446
BSTAR          = .56867E-3
MEAN_MOTION_DOT = .92943E-3
MEAN_MOTION_DDOT = 0

CCSDS_OMM_VERS = 2.0
CREATION_DATE  = 
ORIGINATOR     = 

OBJECT_NAME    = STARLINK-36570
OBJECT_ID      = 2026-020Z
CENTER_NAME    = EARTH
REF_FRAME      = TEME
TIME_SYSTEM    = UTC
MEAN_ELEMENT_THEORY = SGP/SGP4

EPOCH          = 2026-02-19T00:42:52.450272
MEAN_MOTION    = 15.76469999
ECCENTRICITY   = .0001663
INCLINATION    = 42.9967
RA_OF_ASC_NODE = 255.3474
ARG_OF_PERICENTER = 272.5867
MEAN_ANOMALY   = 87.4813

EPHEMERIS_TYPE = 0
CLASSIFICATION_TYPE = U
NORAD_CAT_ID   = 67640
ELEMENT_SET_NO = 999
REV_AT_EPOCH   = 314
BSTAR          = .17178799E-2
MEAN_MOTION_DOT = .290378E-2
MEAN_MOTION_DDOT = 0

CCSDS_OMM_VERS = 2.0
CREATION_DATE  = 
ORIGINATOR     = 

OBJECT_NAME    = STARLINK-36514
OBJECT_ID      = 2026-020AA
CENTER_NAME    = EARTH
REF_FRAME      = TEME
TIME_SYSTEM    = UTC
MEAN_ELEMENT_THEORY = SGP/SGP4

EPOCH          = 2026-02-19T00:05:04.028640
MEAN_MOTION    = 15.82095097
ECCENTRICITY   = .00022459
INCLINATION    = 42.9976
RA_OF_ASC_NODE = 255.1321
ARG_OF_PERICENTER = 247.3359
MEAN_ANOMALY   = 112.7275

EPHEMERIS_TYPE = 0
CLASSIFICATION_TYPE = U
NORAD_CAT_ID   = 67641
ELEMENT_SET_NO = 999
REV_AT_EPOCH   = 314
BSTAR          = .12084849E-2
MEAN_MOTION_DOT = .262782E-2
MEAN_MOTION_DDOT = 0

CCSDS_OMM_VERS = 2.0
CREATION_DATE  = 
ORIGINATOR     = 

OBJECT_NAME    = STARLINK-36556
OBJECT_ID      = 2026-020AB
CENTER_NAME    = EARTH
REF_FRAME      = TEME
TIME_SYSTEM    = UTC
MEAN_ELEMENT_THEORY = SGP/SGP4

EPOCH          = 2026-02-19T12:00:02.998944
MEAN_MOTION    = 15.76330340
ECCENTRICITY   = .0001652
INCLINATION    = 42.9985
RA_OF_ASC_NODE = 252.3330
ARG_OF_PERICENTER = 261.6828
MEAN_ANOMALY   = 312.5225

EPHEMERIS_TYPE = 0
CLASSIFICATION_TYPE = U
NORAD_CAT_ID   = 67642
ELEMENT_SET_NO = 999
REV_AT_EPOCH   = 446
BSTAR          = .43708E-3
MEAN_MOTION_DOT = .71173E-3
MEAN_MOTION_DDOT = 0

